[{"OBJECT_NAME":"STARLINK-2319","OBJECT_ID":"2021-018D","EPOCH":"2026-03-09T15:17:01.512384","MEAN_MOTION":15.3019597,"ECCENTRICITY":0.0001262,"INCLINATION":53.1599,"RA_OF_ASC_NODE":216.9503,"ARG_OF_PERICENTER":122.8406,"MEAN_ANOMALY":237.2717,"EPHEMERIS_TYPE":0,"CLASSIFICATION_TYPE":"U","NORAD_CAT_ID":47790,"ELEMENT_SET_NO":999,"REV_AT_EPOCH":27709,"BSTAR":3.4593e-5,"MEAN_MOTION_DOT":6.65e-6,"MEAN_MOTION_DDOT":0},{"OBJECT_NAME":"LIZZIESAT-2 (LS-2)","OBJECT_ID":"2024-247G","EPOCH":"2026-03-09T11:47:37.199328","MEAN_MOTION":15.28222796,"ECCENTRICITY":0.00040927,"INCLINATION":44.9909,"RA_OF_ASC_NODE":117.0823,"ARG_OF_PERICENTER":327.5136,"MEAN_ANOMALY":32.5495,"EPHEMERIS_TYPE":0,"CLASSIFICATION_TYPE":"U","NORAD_CAT_ID":62383,"ELEMENT_SET_NO":999,"REV_AT_EPOCH":6771,"BSTAR":0.00034516624,"MEAN_MOTION_DOT":9.388e-5,"MEAN_MOTION_DDOT":0}]
